{"type": "FeatureCollection", "features": [ {"type": "Feature", "properties": {"norad_id": 42741, "name": "EUTELSAT 172B", "group": "eutelsat", "lat": -0.004122391106898211, "lon": -142.29071280557886, "alt_km": 35786.275385336085, "timestamp": "2025-12-10T21:43:21.758071+00:00", "meta": {"OBJECT_NAME": "EUTELSAT 172B", "OBJECT_ID": "2017-029B", "EPOCH": "2025-12-10T13:38:19.502592", "MEAN_MOTION": 1.00269422, "ECCENTRICITY": 1.155e-05, "INCLINATION": 0.0147, "RA_OF_ASC_NODE": 96.9551, "ARG_OF_PERICENTER": 140.5526, "MEAN_ANOMALY": 218.6169, "EPHEMERIS_TYPE": 0, "CLASSIFICATION_TYPE": "U", "NORAD_CAT_ID": 42741, "ELEMENT_SET_NO": 999, "REV_AT_EPOCH": 3184, "BSTAR": 0, "MEAN_MOTION_DOT": -2e-08, "MEAN_MOTION_DDOT": 0}, "tle": {"line1": "1 42741U 17029B   25344.56828128 -.00000002  00000+0  00000+0 0  9996", "line2": "2 42741   0.0147  96.9551 0000115 140.5526 218.6169  1.00269422 31842"}}, "geometry": {"type": "Point", "coordinates": [-142.29071280557886, -0.004122391106898211]}}, {"type": "Feature", "properties": {"norad_id": 44334, "name": "EUTELSAT 7C", "group": "eutelsat", "lat": -0.03881648603105026, "lon": 52.6974121257037, "alt_km": 35800.20481561954, "timestamp": "2025-12-10T21:43:21.758083+00:00", "meta": {"OBJECT_NAME": "EUTELSAT 7C", "OBJECT_ID": "2019-034B", "EPOCH": "2025-12-10T00:54:38.687328", "MEAN_MOTION": 1.00271046, "ECCENTRICITY": 0.00033552, "INCLINATION": 0.0729, "RA_OF_ASC_NODE": 178.2937, "ARG_OF_PERICENTER": 64.3773, "MEAN_ANOMALY": 216.9906, "EPHEMERIS_TYPE": 0, "CLASSIFICATION_TYPE": "U", "NORAD_CAT_ID": 44334, "ELEMENT_SET_NO": 999, "REV_AT_EPOCH": 493, "BSTAR": 0, "MEAN_MOTION_DOT": 5.1e-07, "MEAN_MOTION_DDOT": 0}, "tle": {"line1": "1 44334U 19034B   25344.03794777  .00000051  00000+0  00000+0 0  9991", "line2": "2 44334   0.0729 178.2937 0003355  64.3773 216.9906  1.00271046  4931"}}, "geometry": {"type": "Point", "coordinates": [52.6974121257037, -0.03881648603105026]}}, {"type": "Feature", "properties": {"norad_id": 44624, "name": "EUTELSAT 5 WEST B", "group": "eutelsat", "lat": 0.06930845498542475, "lon": 40.73491670664214, "alt_km": 35797.53837398051, "timestamp": "2025-12-10T21:43:21.758095+00:00", "meta": {"OBJECT_NAME": "EUTELSAT 5 WEST B", "OBJECT_ID": "2019-067A", "EPOCH": "2025-12-10T06:29:38.861952", "MEAN_MOTION": 1.00271337, "ECCENTRICITY": 0.00034665, "INCLINATION": 0.0636, "RA_OF_ASC_NODE": 343.945, "ARG_OF_PERICENTER": 276.083, "MEAN_ANOMALY": 271.632, "EPHEMERIS_TYPE": 0, "CLASSIFICATION_TYPE": "U", "NORAD_CAT_ID": 44624, "ELEMENT_SET_NO": 999, "REV_AT_EPOCH": 2254, "BSTAR": 0, "MEAN_MOTION_DOT": -3.9e-07, "MEAN_MOTION_DDOT": 0}, "tle": {"line1": "1 44624U 19067A   25344.27058868 -.00000039  00000+0  00000+0 0  9996", "line2": "2 44624   0.0636 343.9450 0003466 276.0830 271.6320  1.00271337 22548"}}, "geometry": {"type": "Point", "coordinates": [40.73491670664214, 0.06930845498542475]}}, {"type": "Feature", "properties": {"norad_id": 45027, "name": "EUTELSAT KONNECT", "group": "eutelsat", "lat": -0.029409364688838983, "lon": 52.90478398908731, "alt_km": 35791.163872127334, "timestamp": "2025-12-10T21:43:21.758107+00:00", "meta": {"OBJECT_NAME": "EUTELSAT KONNECT", "OBJECT_ID": "2020-005B", "EPOCH": "2025-12-10T00:54:38.687328", "MEAN_MOTION": 1.00268676, "ECCENTRICITY": 0.00017287, "INCLINATION": 0.0718, "RA_OF_ASC_NODE": 96.1497, "ARG_OF_PERICENTER": 191.1313, "MEAN_ANOMALY": 172.586, "EPHEMERIS_TYPE": 0, "CLASSIFICATION_TYPE": "U", "NORAD_CAT_ID": 45027, "ELEMENT_SET_NO": 999, "REV_AT_EPOCH": 2244, "BSTAR": 0, "MEAN_MOTION_DOT": 5.2e-07, "MEAN_MOTION_DDOT": 0}, "tle": {"line1": "1 45027U 20005B   25344.03794777  .00000052  00000+0  00000+0 0  9992", "line2": "2 45027   0.0718  96.1497 0001728 191.1313 172.5860  1.00268676 22446"}}, "geometry": {"type": "Point", "coordinates": [52.90478398908731, -0.029409364688838983]}}, {"type": "Feature", "properties": {"norad_id": 49056, "name": "EUTELSAT QUANTUM", "group": "eutelsat", "lat": 0.031318044594188625, "lon": 93.40717352385009, "alt_km": 35801.89931041457, "timestamp": "2025-12-10T21:43:21.758119+00:00", "meta": {"OBJECT_NAME": "EUTELSAT QUANTUM", "OBJECT_ID": "2021-069B", "EPOCH": "2025-12-10T04:24:38.914272", "MEAN_MOTION": 1.00271276, "ECCENTRICITY": 0.0003726, "INCLINATION": 0.0161, "RA_OF_ASC_NODE": 19.5087, "ARG_OF_PERICENTER": 252.6452, "MEAN_ANOMALY": 280.869, "EPHEMERIS_TYPE": 0, "CLASSIFICATION_TYPE": "U", "NORAD_CAT_ID": 49056, "ELEMENT_SET_NO": 999, "REV_AT_EPOCH": 1603, "BSTAR": 0, "MEAN_MOTION_DOT": 1.29e-06, "MEAN_MOTION_DDOT": 0}, "tle": {"line1": "1 49056U 21069B   25344.18378373  .00000129  00000+0  00000+0 0  9990", "line2": "2 49056   0.0161  19.5087 0003726 252.6452 280.8690  1.00271276 16037"}}, "geometry": {"type": "Point", "coordinates": [93.40717352385009, 0.031318044594188625]}}, {"type": "Feature", "properties": {"norad_id": 53765, "name": "EUTELSAT KONNECT VHTS", "group": "eutelsat", "lat": -0.03161306872565905, "lon": 48.42077080058836, "alt_km": 35796.92873209796, "timestamp": "2025-12-10T21:43:21.758131+00:00", "meta": {"OBJECT_NAME": "EUTELSAT KONNECT VHTS", "OBJECT_ID": "2022-110A", "EPOCH": "2025-12-10T06:29:38.861952", "MEAN_MOTION": 1.00271134, "ECCENTRICITY": 0.00025663, "INCLINATION": 0.0653, "RA_OF_ASC_NODE": 101.0949, "ARG_OF_PERICENTER": 136.9321, "MEAN_ANOMALY": 301.3392, "EPHEMERIS_TYPE": 0, "CLASSIFICATION_TYPE": "U", "NORAD_CAT_ID": 53765, "ELEMENT_SET_NO": 999, "REV_AT_EPOCH": 493, "BSTAR": 0, "MEAN_MOTION_DOT": 2.1e-07, "MEAN_MOTION_DDOT": 0}, "tle": {"line1": "1 53765U 22110A   25344.27058868  .00000021  00000+0  00000+0 0  9995", "line2": "2 53765   0.0653 101.0949 0002566 136.9321 301.3392  1.00271134  4936"}}, "geometry": {"type": "Point", "coordinates": [48.42077080058836, -0.03161306872565905]}}, {"type": "Feature", "properties": {"norad_id": 54048, "name": "EUTELSAT HOTBIRD 13F", "group": "eutelsat", "lat": 0.054981810280892586, "lon": 58.74602077751119, "alt_km": 35782.64728653405, "timestamp": "2025-12-10T21:43:21.758143+00:00", "meta": {"OBJECT_NAME": "EUTELSAT HOTBIRD 13F", "OBJECT_ID": "2022-134A", "EPOCH": "2025-12-10T06:13:38.752320", "MEAN_MOTION": 1.0027045, "ECCENTRICITY": 0.0001975, "INCLINATION": 0.0508, "RA_OF_ASC_NODE": 290.7601, "ARG_OF_PERICENTER": 64.7163, "MEAN_ANOMALY": 190.1902, "EPHEMERIS_TYPE": 0, "CLASSIFICATION_TYPE": "U", "NORAD_CAT_ID": 54048, "ELEMENT_SET_NO": 999, "REV_AT_EPOCH": 1148, "BSTAR": 0, "MEAN_MOTION_DOT": 9e-07, "MEAN_MOTION_DDOT": 0}, "tle": {"line1": "1 54048U 22134A   25344.25947630  .00000090  00000+0  00000+0 0  9994", "line2": "2 54048   0.0508 290.7601 0001975  64.7163 190.1902  1.00270450 11485"}}, "geometry": {"type": "Point", "coordinates": [58.74602077751119, 0.054981810280892586]}}, {"type": "Feature", "properties": {"norad_id": 54225, "name": "EUTELSAT HOTBIRD 13G", "group": "eutelsat", "lat": 0.018019102016028552, "lon": 58.677104947803386, "alt_km": 35791.44141191736, "timestamp": "2025-12-10T21:43:21.758154+00:00", "meta": {"OBJECT_NAME": "EUTELSAT HOTBIRD 13G", "OBJECT_ID": "2022-146A", "EPOCH": "2025-12-10T06:13:38.752320", "MEAN_MOTION": 1.00268356, "ECCENTRICITY": 0.0001886, "INCLINATION": 0.0515, "RA_OF_ASC_NODE": 237.9533, "ARG_OF_PERICENTER": 304.8699, "MEAN_ANOMALY": 2.8172, "EPHEMERIS_TYPE": 0, "CLASSIFICATION_TYPE": "U", "NORAD_CAT_ID": 54225, "ELEMENT_SET_NO": 999, "REV_AT_EPOCH": 557, "BSTAR": 0, "MEAN_MOTION_DOT": 9e-07, "MEAN_MOTION_DDOT": 0}, "tle": {"line1": "1 54225U 22146A   25344.25947630  .00000090  00000+0  00000+0 0  9994", "line2": "2 54225   0.0515 237.9533 0001886 304.8699   2.8172  1.00268356  5573"}}, "geometry": {"type": "Point", "coordinates": [58.677104947803386, 0.018019102016028552]}}, {"type": "Feature", "properties": {"norad_id": 54259, "name": "EUTELSAT 10B", "group": "eutelsat", "lat": -0.020752273219722422, "lon": 55.67213961185532, "alt_km": 35788.028645471626, "timestamp": "2025-12-10T21:43:21.758166+00:00", "meta": {"OBJECT_NAME": "EUTELSAT 10B", "OBJECT_ID": "2022-157A", "EPOCH": "2025-12-10T06:21:38.695680", "MEAN_MOTION": 1.00269412, "ECCENTRICITY": 7.846e-05, "INCLINATION": 0.0611, "RA_OF_ASC_NODE": 99.1185, "ARG_OF_PERICENTER": 70.4001, "MEAN_ANOMALY": 15.1099, "EPHEMERIS_TYPE": 0, "CLASSIFICATION_TYPE": "U", "NORAD_CAT_ID": 54259, "ELEMENT_SET_NO": 999, "REV_AT_EPOCH": 1113, "BSTAR": 0, "MEAN_MOTION_DOT": 7.1e-07, "MEAN_MOTION_DDOT": 0}, "tle": {"line1": "1 54259U 22157A   25344.26503120  .00000071  00000+0  00000+0 0  9995", "line2": "2 54259   0.0611  99.1185 0000784  70.4001  15.1099  1.00269412 11135"}}, "geometry": {"type": "Point", "coordinates": [55.67213961185532, -0.020752273219722422]}}, {"type": "Feature", "properties": {"norad_id": 59346, "name": "EUTELSAT 36D", "group": "eutelsat", "lat": 0.03574005509166275, "lon": 81.56051097953143, "alt_km": 35787.35674002548, "timestamp": "2025-12-10T21:43:21.758177+00:00", "meta": {"OBJECT_NAME": "EUTELSAT 36D", "OBJECT_ID": "2024-059A", "EPOCH": "2025-12-10T04:48:38.703744", "MEAN_MOTION": 1.00268969, "ECCENTRICITY": 4.97e-05, "INCLINATION": 0.0175, "RA_OF_ASC_NODE": 352.6536, "ARG_OF_PERICENTER": 342.7613, "MEAN_ANOMALY": 211.7763, "EPHEMERIS_TYPE": 0, "CLASSIFICATION_TYPE": "U", "NORAD_CAT_ID": 59346, "ELEMENT_SET_NO": 999, "REV_AT_EPOCH": 625, "BSTAR": 0, "MEAN_MOTION_DOT": 0, "MEAN_MOTION_DDOT": 0}, "tle": {"line1": "1 59346U 24059A   25344.20044796  .00000000  00000+0  00000+0 0  9995", "line2": "2 59346   0.0175 352.6536 0000497 342.7613 211.7763  1.00268969  6259"}}, "geometry": {"type": "Point", "coordinates": [81.56051097953143, 0.03574005509166275]}}]}